     3.00           N: GNSS NAV DATA    E: Galileo          RINEX VERSION / TYPE
PREC2NAV                                20121215 063305 UTC PGM / RUN BY / DATE 
SOURCE: data/tum%W%D.sp3                                    COMMENT             
                                                            END OF HEADER       
E12 2012 11  6 14  0  0  .448367424560E-03  .851275025641E-10  .000000000000E+00
      .800000000000E+01 -.100646657440E+03  .322613690716E-08  .271377624803E+01
     -.456252381613E-05  .373519276726E-04  .984366189872E-05  .544061744725E+04
      .223200000000E+06 -.117463281220E-07  .131742978357E+01  .261044849380E-07
      .956105783819E+00  .127945255518E+03 -.344456584145E+01 -.562350749644E-08
      .885340815063E-10  .000000000000E+00  .171300000000E+04  .000000000000E+00
      .240000000000E+01  .000000000000E+00  .000000000000E+00  .000000000000E+00
      .226800000000E+06  .000000000000E+00
E11 2012 11  6 16  0  0  .166397002600E-03  .385211923077E-09  .000000000000E+00
      .900000000000E+01 -.102574032270E+03  .324552851516E-08 -.188306380208E+01
     -.463354894870E-05  .147726756487E-03  .982275723917E-05  .544062000176E+04
      .230400000000E+06 -.376028459148E-08  .131741567586E+01  .115161133470E-07
      .956094507657E+00  .128691514670E+03  .134111393471E+01 -.562876372235E-08
      .109577120867E-09  .000000000000E+00  .171300000000E+04  .000000000000E+00
      .240000000000E+01  .000000000000E+00  .000000000000E+00  .000000000000E+00
      .234000000000E+06  .000000000000E+00
E12 2012 11  6 16  0  0  .448980185560E-03  .850852153846E-10  .000000000000E+00
      .900000000000E+01 -.916673186040E+02  .329992228505E-08 -.268921324888E+01
     -.414569231457E-05  .410947265401E-04  .110249749026E-04  .544060969598E+04
      .230400000000E+06  .976556022435E-09  .131738933802E+01 -.814560482404E-08
      .956106653819E+00  .102095994795E+03  .285104836599E+01 -.558952111824E-08
      .100193910564E-09  .000000000000E+00  .171300000000E+04  .000000000000E+00
      .240000000000E+01  .000000000000E+00  .000000000000E+00  .000000000000E+00
      .234000000000E+06  .000000000000E+00
E11 2012 11  6 18  0  0  .169170530520E-03  .385204100000E-09  .000000000000E+00
      .100000000000E+02 -.954605289968E+02  .331424400080E-08 -.101690488007E+01
     -.431256729882E-05  .147381436863E-03  .111068745765E-04  .544061190296E+04
      .237600000000E+06  .177967160068E-07  .131737523064E+01 -.188130505385E-08
      .956095478630E+00  .101690271249E+03  .136757942092E+01 -.559976653424E-08
      .113658473644E-09  .000000000000E+00  .171300000000E+04  .000000000000E+00
      .240000000000E+01  .000000000000E+00  .000000000000E+00  .000000000000E+00
      .241200000000E+06  .000000000000E+00
E12 2012 11  6 18  0  0  .449592911160E-03  .851059205128E-10  .000000000000E+00
      .100000000000E+02 -.730331709248E+02  .318132113951E-08 -.174243013354E+01
     -.349440045926E-05  .400878174517E-04  .111073317114E-04  .544061454779E+04
      .237600000000E+06  .110854735103E-07  .131734919216E+01  .536029045584E-08
      .956107416616E+00  .101030263550E+03  .279689176272E+01 -.557762564389E-08
      .979680623813E-10  .000000000000E+00  .171300000000E+04  .000000000000E+00
      .240000000000E+01  .000000000000E+00  .000000000000E+00  .000000000000E+00
      .241200000000E+06  .000000000000E+00
E11 2012 11  6 20  0  0  .171944033680E-03  .385230589744E-09  .000000000000E+00
      .110000000000E+02 -.729680255822E+02  .314560455069E-08 -.112903167467E+00
     -.358054110714E-05  .150004796197E-03  .110806981646E-04  .544061832780E+04
      .244800000000E+06  .405342414368E-08  .131733513804E+01  .160749783300E-07
      .956096340461E+00  .101516964851E+03  .135620188037E+01 -.557869314222E-08
      .975677835699E-10  .000000000000E+00  .171300000000E+04  .000000000000E+00
      .240000000000E+01  .000000000000E+00  .000000000000E+00  .000000000000E+00
      .248400000000E+06  .000000000000E+00
E12 2012 11  6 20  0  0  .450205692160E-03  .851094435897E-10  .000000000000E+00
      .110000000000E+02 -.671246997531E+02  .320639989450E-08 -.921102623981E+00
     -.327225246878E-05  .387605916068E-04  .989078870940E-05  .544060823421E+04
      .244800000000E+06  .105159343506E-07  .131730911038E+01  .464359400107E-08
      .956108098524E+00  .123502268991E+03  .286818919203E+01 -.557673847136E-08
      .904016513031E-10  .000000000000E+00  .171300000000E+04  .000000000000E+00
      .240000000000E+01  .000000000000E+00  .000000000000E+00  .000000000000E+00
      .248400000000E+06  .000000000000E+00
E11 2012 11  6 22  0  0  .174717653160E-03  .385206943590E-09  .000000000000E+00
      .120000000000E+02 -.624794573765E+02  .319148291966E-08  .790759465330E+00
     -.307311082629E-05  .146128145951E-03  .957661204471E-05  .544060961316E+04
      .252000000000E+06  .101700037361E-07  .131729510461E+01 -.381413727226E-08
      .956096960634E+00  .129336477363E+03  .134516318584E+01 -.558087592197E-08
      .781753407133E-10  .000000000000E+00  .171300000000E+04  .000000000000E+00
      .240000000000E+01  .000000000000E+00  .000000000000E+00  .000000000000E+00
      .255600000000E+06  .000000000000E+00
E12 2012 11  6 22  0  0  .450818421240E-03  .851044410256E-10  .000000000000E+00
      .120000000000E+02 -.676942386760E+02  .316847363214E-08 -.438346301305E-01
     -.314304604045E-05  .392695763888E-04  .940553058564E-05  .544060857584E+04
      .252000000000E+06  .185788039584E-07  .131726899359E+01  .219875076306E-07
      .956108659331E+00  .134624548662E+03  .288354944820E+01 -.559036882419E-08
      .814629676001E-10  .000000000000E+00  .171300000000E+04  .000000000000E+00
      .240000000000E+01  .000000000000E+00  .000000000000E+00  .000000000000E+00
      .255600000000E+06  .000000000000E+00
E11 2012 11  7  0  0  0  .177491150520E-03  .385196361538E-09  .000000000000E+00
      .130000000000E+02 -.702528904326E+02  .285809894713E-08  .167001430796E+01
     -.325544357422E-05  .146151910041E-03  .901652600208E-05  .544061344657E+04
      .259200000000E+06  .537701094884E-06  .131725455172E+01 -.173161127845E-06
      .956099657683E+00  .143183141092E+03  .135853479625E+01 -.516926553164E-08
      .105475232709E-09  .000000000000E+00  .171300000000E+04  .000000000000E+00
      .240000000000E+01  .000000000000E+00  .000000000000E+00  .000000000000E+00
      .262800000000E+06  .000000000000E+00
E12 2012 11  7  0  0  0  .451431133480E-03  .850951025641E-10  .000000000000E+00
      .130000000000E+02 -.710123855516E+02  .295582538587E-08  .841598580795E+00
     -.329719448239E-05  .412978307209E-04  .882298115876E-05  .544061270411E+04
      .259200000000E+06 -.652892850088E-07  .131722983618E+01  .392301055783E-06
      .956110265015E+00  .149945956728E+03 -.339244469537E+01 -.536223031905E-08
     -.525040353095E-10  .000000000000E+00  .171300000000E+04  .000000000000E+00
      .240000000000E+01  .000000000000E+00  .000000000000E+00  .000000000000E+00
      .262800000000E+06  .000000000000E+00
